ONEWEB-0207             
1 48242U 21031AJ  26094.11558237  .00000249  00000+0  63786-3 0  9997
2 48242  87.8953 304.4786 0001430  83.0886 277.0406 13.14501279238568
ONEWEB-0208             
1 48243U 21031AK  26094.09735031  .00000227  00000+0  57746-3 0  9999
2 48243  87.8940 304.4935 0001864  78.6844 281.4496 13.14501809238574
ONEWEB-0200             
1 48244U 21031AL  26094.13698969 -.00000076  00000+0 -23905-3 0  9997
2 48244  87.8938 304.4737 0001675  82.8288 277.3032 13.14503988238504
ONEWEB-0217             
1 48245U 21031AM  26094.07672496 -.00000337  00000+0 -94238-3 0  9995
2 48245  87.8944 304.4862 0001877  76.6330 283.5009 13.14502868238446
ONEWEB-0211             
1 48767U 21045A   26093.91938012  .00000006  00000+0 -17494-4 0  9992
2 48767  87.8929 273.9189 0002306  81.3961 278.7431 13.16192379234671
ONEWEB-0223             
1 48768U 21045B   26094.18948306  .00000036  00000+0  62199-4 0  9994
2 48768  87.8935 273.9538 0002181  90.1987 269.9393 13.15549998234675
ONEWEB-0230             
1 48769U 21045C   26094.00884811  .00000156  00000+0  37922-3 0  9994
2 48769  87.8920 274.0101 0001656  97.8671 262.2648 13.15549902234919
ONEWEB-0237             
1 48770U 21045D   26093.99775483 -.00000016  00000+0 -75690-4 0  9999
2 48770  87.8923 274.0140 0002000  95.9539 264.1819 13.15549858234633
ONEWEB-0235             
1 48771U 21045E   26094.20056903  .00000029  00000+0  42076-4 0  9998
2 48771  87.8934 273.9522 0002195  92.3473 267.7908 13.15550344234653
ONEWEB-0242             
1 48772U 21045F   26094.19422827  .00000055  00000+0  11185-3 0  9994
2 48772  87.8937 273.9494 0001866  97.2744 262.8598 13.15549791234693
ONEWEB-0241             
1 48773U 21045G   26094.02944314  .00000191  00000+0  47362-3 0  9994
2 48773  87.8926 274.0091 0002056  86.3836 273.7529 13.15550146234589
ONEWEB-0243             
1 48774U 21045H   26094.06114187 -.00000057  00000+0 -18612-3 0  9995
2 48774  87.8926 274.0138 0002190 103.3803 256.7572 13.15548652234617
ONEWEB-0222             
1 48775U 21045J   26094.19661171  .00000105  00000+0  24492-3 0  9995
2 48775  87.8932 273.9489 0001854  91.3404 268.7939 13.15550748234676
ONEWEB-0244             
1 48776U 21045K   26093.99458671 -.00000066  00000+0 -20848-3 0  9991
2 48776  87.8936 273.9796 0001879  95.0877 265.0468 13.15550134235211
ONEWEB-0247             
1 48777U 21045L   26093.53507713 -.00000126  00000+0 -36805-3 0  9991
2 48777  87.8924 274.1138 0002561 100.5559 259.5860 13.15549340234591
ONEWEB-0245             
1 48778U 21045M   26093.98665454 -.00000101  00000+0 -30326-3 0  9993
2 48778  87.8933 273.9959 0001842  87.5320 272.6021 13.15550142234622
