[{"OBJECT_NAME":"ONEWEB-0207","OBJECT_ID":"2021-031AJ","EPOCH":"2026-04-04T02:46:26.316768","MEAN_MOTION":13.14501279,"ECCENTRICITY":0.000143,"INCLINATION":87.8953,"RA_OF_ASC_NODE":304.4786,"ARG_OF_PERICENTER":83.0886,"MEAN_ANOMALY":277.0406,"EPHEMERIS_TYPE":0,"CLASSIFICATION_TYPE":"U","NORAD_CAT_ID":48242,"ELEMENT_SET_NO":999,"REV_AT_EPOCH":23856,"BSTAR":0.00063786,"MEAN_MOTION_DOT":2.49e-06,"MEAN_MOTION_DDOT":0.0},{"OBJECT_NAME":"ONEWEB-0208","OBJECT_ID":"2021-031AK","EPOCH":"2026-04-04T02:20:11.066784","MEAN_MOTION":13.14501809,"ECCENTRICITY":0.0001864,"INCLINATION":87.894,"RA_OF_ASC_NODE":304.4935,"ARG_OF_PERICENTER":78.6844,"MEAN_ANOMALY":281.4496,"EPHEMERIS_TYPE":0,"CLASSIFICATION_TYPE":"U","NORAD_CAT_ID":48243,"ELEMENT_SET_NO":999,"REV_AT_EPOCH":23857,"BSTAR":0.00057746,"MEAN_MOTION_DOT":2.27e-06,"MEAN_MOTION_DDOT":0.0},{"OBJECT_NAME":"ONEWEB-0200","OBJECT_ID":"2021-031AL","EPOCH":"2026-04-04T03:17:15.909216","MEAN_MOTION":13.14503988,"ECCENTRICITY":0.0001675,"INCLINATION":87.8938,"RA_OF_ASC_NODE":304.4737,"ARG_OF_PERICENTER":82.8288,"MEAN_ANOMALY":277.3032,"EPHEMERIS_TYPE":0,"CLASSIFICATION_TYPE":"U","NORAD_CAT_ID":48244,"ELEMENT_SET_NO":999,"REV_AT_EPOCH":23850,"BSTAR":-0.00023905,"MEAN_MOTION_DOT":-7.6e-07,"MEAN_MOTION_DDOT":0.0},{"OBJECT_NAME":"ONEWEB-0217","OBJECT_ID":"2021-031AM","EPOCH":"2026-04-04T01:50:29.036544","MEAN_MOTION":13.14502868,"ECCENTRICITY":0.0001877,"INCLINATION":87.8944,"RA_OF_ASC_NODE":304.4862,"ARG_OF_PERICENTER":76.633,"MEAN_ANOMALY":283.5009,"EPHEMERIS_TYPE":0,"CLASSIFICATION_TYPE":"U","NORAD_CAT_ID":48245,"ELEMENT_SET_NO":999,"REV_AT_EPOCH":23844,"BSTAR":-0.00094238,"MEAN_MOTION_DOT":-3.37e-06,"MEAN_MOTION_DDOT":0.0},{"OBJECT_NAME":"ONEWEB-0211","OBJECT_ID":"2021-045A","EPOCH":"2026-04-03T22:03:54.442368","MEAN_MOTION":13.16192379,"ECCENTRICITY":0.0002306,"INCLINATION":87.8929,"RA_OF_ASC_NODE":273.9189,"ARG_OF_PERICENTER":81.3961,"MEAN_ANOMALY":278.7431,"EPHEMERIS_TYPE":0,"CLASSIFICATION_TYPE":"U","NORAD_CAT_ID":48767,"ELEMENT_SET_NO":999,"REV_AT_EPOCH":23467,"BSTAR":-1.7494000000000002e-05,"MEAN_MOTION_DOT":6e-08,"MEAN_MOTION_DDOT":0.0},{"OBJECT_NAME":"ONEWEB-0223","OBJECT_ID":"2021-045B","EPOCH":"2026-04-04T04:32:51.336384","MEAN_MOTION":13.15549998,"ECCENTRICITY":0.0002181,"INCLINATION":87.8935,"RA_OF_ASC_NODE":273.9538,"ARG_OF_PERICENTER":90.1987,"MEAN_ANOMALY":269.9393,"EPHEMERIS_TYPE":0,"CLASSIFICATION_TYPE":"U","NORAD_CAT_ID":48768,"ELEMENT_SET_NO":999,"REV_AT_EPOCH":23467,"BSTAR":6.2199e-05,"MEAN_MOTION_DOT":3.6e-07,"MEAN_MOTION_DDOT":0.0},{"OBJECT_NAME":"ONEWEB-0230","OBJECT_ID":"2021-045C","EPOCH":"2026-04-04T00:12:44.476704","MEAN_MOTION":13.15549902,"ECCENTRICITY":0.0001656,"INCLINATION":87.892,"RA_OF_ASC_NODE":274.0101,"ARG_OF_PERICENTER":97.8671,"MEAN_ANOMALY":262.2648,"EPHEMERIS_TYPE":0,"CLASSIFICATION_TYPE":"U","NORAD_CAT_ID":48769,"ELEMENT_SET_NO":999,"REV_AT_EPOCH":23491,"BSTAR":0.00037922,"MEAN_MOTION_DOT":1.56e-06,"MEAN_MOTION_DDOT":0.0},{"OBJECT_NAME":"ONEWEB-0237","OBJECT_ID":"2021-045D","EPOCH":"2026-04-03T23:56:46.017312","MEAN_MOTION":13.15549858,"ECCENTRICITY":0.0002,"INCLINATION":87.8923,"RA_OF_ASC_NODE":274.014,"ARG_OF_PERICENTER":95.9539,"MEAN_ANOMALY":264.1819,"EPHEMERIS_TYPE":0,"CLASSIFICATION_TYPE":"U","NORAD_CAT_ID":48770,"ELEMENT_SET_NO":999,"REV_AT_EPOCH":23463,"BSTAR":-7.569e-05,"MEAN_MOTION_DOT":-1.6e-07,"MEAN_MOTION_DDOT":0.0},{"OBJECT_NAME":"ONEWEB-0235","OBJECT_ID":"2021-045E","EPOCH":"2026-04-04T04:48:49.164192","MEAN_MOTION":13.15550344,"ECCENTRICITY":0.0002195,"INCLINATION":87.8934,"RA_OF_ASC_NODE":273.9522,"ARG_OF_PERICENTER":92.3473,"MEAN_ANOMALY":267.7908,"EPHEMERIS_TYPE":0,"CLASSIFICATION_TYPE":"U","NORAD_CAT_ID":48771,"ELEMENT_SET_NO":999,"REV_AT_EPOCH":23465,"BSTAR":4.2076e-05,"MEAN_MOTION_DOT":2.9e-07,"MEAN_MOTION_DDOT":0.0},{"OBJECT_NAME":"ONEWEB-0242","OBJECT_ID":"2021-045F","EPOCH":"2026-04-04T04:39:41.322528","MEAN_MOTION":13.15549791,"ECCENTRICITY":0.0001866,"INCLINATION":87.8937,"RA_OF_ASC_NODE":273.9494,"ARG_OF_PERICENTER":97.2744,"MEAN_ANOMALY":262.8598,"EPHEMERIS_TYPE":0,"CLASSIFICATION_TYPE":"U","NORAD_CAT_ID":48772,"ELEMENT_SET_NO":999,"REV_AT_EPOCH":23469,"BSTAR":0.00011185000000000001,"MEAN_MOTION_DOT":5.5e-07,"MEAN_MOTION_DDOT":0.0},{"OBJECT_NAME":"ONEWEB-0241","OBJECT_ID":"2021-045G","EPOCH":"2026-04-04T00:42:23.887296","MEAN_MOTION":13.15550146,"ECCENTRICITY":0.0002056,"INCLINATION":87.8926,"RA_OF_ASC_NODE":274.0091,"ARG_OF_PERICENTER":86.3836,"MEAN_ANOMALY":273.7529,"EPHEMERIS_TYPE":0,"CLASSIFICATION_TYPE":"U","NORAD_CAT_ID":48773,"ELEMENT_SET_NO":999,"REV_AT_EPOCH":23458,"BSTAR":0.00047362,"MEAN_MOTION_DOT":1.91e-06,"MEAN_MOTION_DDOT":0.0},{"OBJECT_NAME":"ONEWEB-0243","OBJECT_ID":"2021-045H","EPOCH":"2026-04-04T01:28:02.657568","MEAN_MOTION":13.15548652,"ECCENTRICITY":0.000219,"INCLINATION":87.8926,"RA_OF_ASC_NODE":274.0138,"ARG_OF_PERICENTER":103.3803,"MEAN_ANOMALY":256.7572,"EPHEMERIS_TYPE":0,"CLASSIFICATION_TYPE":"U","NORAD_CAT_ID":48774,"ELEMENT_SET_NO":999,"REV_AT_EPOCH":23461,"BSTAR":-0.00018612000000000001,"MEAN_MOTION_DOT":-5.7e-07,"MEAN_MOTION_DDOT":0.0},{"OBJECT_NAME":"ONEWEB-0222","OBJECT_ID":"2021-045J","EPOCH":"2026-04-04T04:43:07.251744","MEAN_MOTION":13.15550748,"ECCENTRICITY":0.0001854,"INCLINATION":87.8932,"RA_OF_ASC_NODE":273.9489,"ARG_OF_PERICENTER":91.3404,"MEAN_ANOMALY":268.7939,"EPHEMERIS_TYPE":0,"CLASSIFICATION_TYPE":"U","NORAD_CAT_ID":48775,"ELEMENT_SET_NO":999,"REV_AT_EPOCH":23467,"BSTAR":0.00024492,"MEAN_MOTION_DOT":1.05e-06,"MEAN_MOTION_DDOT":0.0},{"OBJECT_NAME":"ONEWEB-0244","OBJECT_ID":"2021-045K","EPOCH":"2026-04-03T23:52:12.291744","MEAN_MOTION":13.15550134,"ECCENTRICITY":0.0001879,"INCLINATION":87.8936,"RA_OF_ASC_NODE":273.9796,"ARG_OF_PERICENTER":95.0877,"MEAN_ANOMALY":265.0468,"EPHEMERIS_TYPE":0,"CLASSIFICATION_TYPE":"U","NORAD_CAT_ID":48776,"ELEMENT_SET_NO":999,"REV_AT_EPOCH":23521,"BSTAR":-0.00020848,"MEAN_MOTION_DOT":-6.6e-07,"MEAN_MOTION_DDOT":0.0},{"OBJECT_NAME":"ONEWEB-0247","OBJECT_ID":"2021-045L","EPOCH":"2026-04-03T12:50:30.664032","MEAN_MOTION":13.1554934,"ECCENTRICITY":0.0002561,"INCLINATION":87.8924,"RA_OF_ASC_NODE":274.1138,"ARG_OF_PERICENTER":100.5559,"MEAN_ANOMALY":259.586,"EPHEMERIS_TYPE":0,"CLASSIFICATION_TYPE":"U","NORAD_CAT_ID":48777,"ELEMENT_SET_NO":999,"REV_AT_EPOCH":23459,"BSTAR":-0.00036805,"MEAN_MOTION_DOT":-1.26e-06,"MEAN_MOTION_DDOT":0.0},{"OBJECT_NAME":"ONEWEB-0245","OBJECT_ID":"2021-045M","EPOCH":"2026-04-03T23:40:46.952256","MEAN_MOTION":13.15550142,"ECCENTRICITY":0.0001842,"INCLINATION":87.8933,"RA_OF_ASC_NODE":273.9959,"ARG_OF_PERICENTER":87.532,"MEAN_ANOMALY":272.6021,"EPHEMERIS_TYPE":0,"CLASSIFICATION_TYPE":"U","NORAD_CAT_ID":48778,"ELEMENT_SET_NO":999,"REV_AT_EPOCH":23462,"BSTAR":-0.00030325999999999997,"MEAN_MOTION_DOT":-1.01e-06,"MEAN_MOTION_DDOT":0.0}]